# Made by eph2tle, compiled Nov 21 2022 19:22:55
# Run at Sat Nov 26 13:05:45 2022
#
#    The following TLEs (Two-Line Elements) were generated by fitting
# a numerically-integrated ephemeris,  based on the orbit given below,
# to the SDP4/SGP4 models.  Each TLE is good for the interval between
# its epoch and the epoch of the subsequent TLE (usually one day).
# The maximum deviation between the numerically integrated ephemerides
# and the TLE-based ephemeris, in kilometers,  is given for each TLE
# as the "worst residual".
#
#    This fitting is done using the 'eph2tle' code packaged with Find_Orb.
# The code has details on how the TLEs were computed :
#
#    https://github.com/Bill-Gray/find_orb/eph2tle.cpp
#
#    Be warned:  the error given is that between the numerically
# integrated ephems and the TLE model.  There will usually be at
# least some additional difference between the ephems and the actual
# motion of the satellite,  especially if the ephemerides are based
# on a short arc.  If the following orbital elements say something
# like "[based on] 10 observations 2015 Jan. 1-13",  and the TLEs
# are for 2015 May,  the extrapolation may be tenuous at best.  If
# your application requires a specific level of accuracy,  you may
# want to contact me;  I can give you some idea as to the fit of the
# underlying data (and possibly TLEs based on newer data).
#
#   You can usually find the underlying observational data,  and the
# fitted orbit,  residuals,  ephemerides,  and sometimes some comments
# about the object,  among the pages listed at
#
#    https://www.projectpluto.com/pluto/mpecs/pseudo.htm
#
#    WARNING:  for this object,  "normal" TLEs cannot be fitted.  (This
# usually means an object with an hyperbolic or nearly-parabolic orbit.)
# For this and similar cases,   an alternative model is used,  in which
# most of the traditional TLE data is replaced by six signed 8-digit hex
# numbers.  These six numbers are a state vector,  numerically integrated
# using a simplified force model.  This is necessary for objects at L2 or
# L1,  and sometimes for objects in high orbits where the SDP4/SGP4 model
# fails.  Some documentation is in 'get_el.cpp' in the source code at
# https://www.github.com/Bill-Gray/sat_code ; look for 'hex' in that file,
# with the actual integration done in 'sdp4.cpp'.  But be aware:  it's my
# own extension,  doesn't work with other code,  and is therefore used
# only when necessary.
#
#    Also,  if you use a TLE outside the "correct" time range (between
# its MJD and that of the next TLE),  all bets are off.  I've carefully
# computed and minimized the worst error over the "correct" time frame,
# but the ephemeris may (or may not) diverge wildly outside of it.
#
# Ephem range: 59900.000000 60065.000000 1.000000
# Created Sat Nov 26 13:05:12 2022
# Ephemeris start: 17 Nov 2022  0:00:00
# Ephemeris end:    1 May 2023  0:00:00
# Times are all TDT
# Positions/velocities are in equatorial J2000
# Orbital elements:  A10Re7q
#    Perigee 2022 Nov 23.8647282 +/- 0.000491 TT = 20:45:12.51 (JD 2459907.3647282)
# Epoch 2022 Nov 26.0 TT = JDT 2459909.5                           Find_Orb
# q265674.55837 +/- 85.5              (J2000 equator)
# H   25.16 G 0.15                    Peri.  256.2794796 +/- 0.022
#                                     Node    13.7883781 +/- 0.0006
# e   1.143296206 +/- 0.000809        Incl.   39.6070096 +/- 0.00041
# From 33 observations 2022 Nov. 26 (16.8 hr); mean residual 0".517
#
# 1 NoradU COSPAR   Epoch.epoch     dn/dt/2  d2n/dt2/6 BSTAR    T El# C
# 2 NoradU Inclina RAAscNode Eccent  ArgPeri MeanAno  MeanMotion Rev# C

# Worst residual: 0.39 km
# MJD 59900.000000 (2022 Nov 17  0:00)
A10Re7q
1 54258U 22156B   22320.99919926 -002GK9T3 -000JBBZ3 -0001AJHLH 17913
2 54258                          -0009GOJD -0004LMPK -0001L72Z     02

# Worst residual: 0.91 km
# MJD 59901.000000 (2022 Nov 18  0:00)
A10Re7q
1 54258U 22156B   22321.99919926 -0042FAPD -001GM307 -000DYT5WH 17918
2 54258                          -0004SQBM -00038VTP -0001BV0H     05

# Worst residual: 2.48 km
# MJD 59902.000000 (2022 Nov 19  0:00)
A10Re7q
1 54258U 22156B   22322.99919926 -004XU73R -0024OYNZ -000OAPW0H 17917
2 54258                          -0002N8KP -0002D53I -00012C45     01

# Worst residual: 12.01 km
# MJD 59903.000000 (2022 Nov 20  0:00)
A10Re7q
1 54258U 22156B   22323.99919926 -005DYIWG -002LTFLQ -000WDCMBH 17915
2 54258                          -00015HZ8 -0001LPM5 -0000SSVY     09

# Worst residual: 1825.94 km
# MJD 59904.000000 (2022 Nov 21  0:00)
A10Re7q
1 54258U 22156B   22324.99919926 -005INI7Z -002W30NN -0011WEAMH 17918
2 54258                          +00000F2O -0000PEV2 -0000FZTD     02

# Worst residual: 310.68 km
# MJD 59905.000000 (2022 Nov 22  0:00)
A10Re7q
1 54258U 22156B   22325.99919926 -004NDBS2 -002XOUP5 -001E5GVOH 17919
2 54258                          +00093TXB -000298FR -0003W8WN     00

# Worst residual: 5.35 km
# MJD 59906.000000 (2022 Nov 23  0:00)
A10Re7q
1 54258U 22156B   22326.99919926 -002DKR8O -003DNPHU -00288DR5H 17917
2 54258                          +000A0HCL -000167VF -0002ZCW7     01

# Worst residual: 1.97 km
# MJD 59907.000000 (2022 Nov 24  0:00)
A10Re7q
1 54258U 22156B   22327.99919926 +0004FVX2 -003F0PAA -002RHK30H 17915
2 54258                          +000ALUKX +0000XUGC -0001DEDU     08

# Worst residual: 1.30 km
# MJD 59908.000000 (2022 Nov 25  0:00)
A10Re7q
1 54258U 22156B   22328.99919926 +002LEZS6 -002Y41VF -002VPHWJH 17919
2 54258                          +0009SKXP +0002U052 +0000BIPA     04

# Worst residual: 1.01 km
# MJD 59909.000000 (2022 Nov 26  0:00)
A10Re7q
1 54258U 22156B   22329.99919926 +004S3L66 -0024THGP -002NVOIDH 17910
2 54258                          +0008EV8E +0003T398 +0001DPFZ     06

# Worst residual: 0.71 km
# MJD 59910.000000 (2022 Nov 27  0:00)
A10Re7q
1 54258U 22156B   22330.99919926 +006NCOYD -00161UJN -0029DBKUH 17910
2 54258                          +00077CAQ +000468MU +0001WWUZ     09

# Worst residual: 0.34 km
# MJD 59911.000000 (2022 Nov 28  0:00)
A10Re7q
1 54258U 22156B   22331.99919926 +0089FBIG -0005GGB4 -001RKXFXH 17913
2 54258                          +0006A6MS +00049QIW +000267R4     00

# Worst residual: 0.24 km
# MJD 59912.000000 (2022 Nov 29  0:00)
A10Re7q
1 54258U 22156B   22332.99919926 +009OKIZY +000VFX57 -001879QHH 17912
2 54258                          +0005L5FA +00049DEX +0002AQK9     00

# Worst residual: 0.40 km
# MJD 59913.000000 (2022 Nov 30  0:00)
A10Re7q
1 54258U 22156B   22333.99919926 +00AYFH9I +001W1O9X -000O1XM8H 17916
2 54258                          +00051SMK +00047IPK +0002CVXZ     05

# Worst residual: 0.43 km
# MJD 59914.000000 (2022 Dec  1  0:00)
A10Re7q
1 54258U 22156B   22334.99919926 +00C459XY +002W4SEA -0003JWTJH 17915
2 54258                          +0004ME6G +000455RS +0002DSWY     02

# Worst residual: 0.47 km
# MJD 59915.000000 (2022 Dec  2  0:00)
A10Re7q
1 54258U 22156B   22335.99919926 +00D6IVRD +003VMYUO +000H2UXYH 17919
2 54258                          +00049TPP +00042PVD +0002E1WK     08

# Worst residual: 0.62 km
# MJD 59916.000000 (2022 Dec  3  0:00)
A10Re7q
1 54258U 22156B   22336.99919926 +00E65FBZ +004UKF09 +0011Q1JSH 17916
2 54258                          +0003ZD78 +00040DPE +0002DXMR     00

# Worst residual: 0.72 km
# MJD 59917.000000 (2022 Dec  4  0:00)
A10Re7q
1 54258U 22156B   22337.99919926 +00F3GXM1 +005SYEO0 +001MB84XH 17912
2 54258                          +0003QJEA +0003Y7YH +0002DLY1     02

# Worst residual: 0.76 km
# MJD 59918.000000 (2022 Dec  5  0:00)
A10Re7q
1 54258U 22156B   22338.99919926 +00FYTYY0 +006QULNB +0026T2A5H 17912
2 54258                          +0003J091 +0003W9G4 +0002D662     01

# Worst residual: 0.77 km
# MJD 59919.000000 (2022 Dec  6  0:00)
A10Re7q
1 54258U 22156B   22339.99919926 +00GSIMAL +007OAR90 +002R6U0BH 17916
2 54258                          +0003CIW2 +0003UIAT +0002COBE     06

# Worst residual: 0.78 km
# MJD 59920.000000 (2022 Dec  7  0:00)
A10Re7q
1 54258U 22156B   22340.99919926 +00HKR3QX +008LCN2J +003BG7IUH 17917
2 54258                          +00036WKW +0003SYIG +0002C5Q7     02

# Worst residual: 0.79 km
# MJD 59921.000000 (2022 Dec  8  0:00)
A10Re7q
1 54258U 22156B   22341.99919926 +00IBQ84Q +009I20TK +003VL4TAH 17915
2 54258                          +0003203S +0003RM4J +0002BND2     05

# Worst residual: 0.79 km
# MJD 59922.000000 (2022 Dec  9  0:00)
A10Re7q
1 54258U 22156B   22342.99919926 +00J1LO5R +00AEGOVS +004FLR3AH 17919
2 54258                          +0002XPC1 +0003QH8Z +0002B5Y8     05

# Worst residual: 0.78 km
# MJD 59923.000000 (2022 Dec 10  0:00)
A10Re7q
1 54258U 22156B   22343.99919926 +00JQI8E7 +00BAMGQJ +004ZID5NH 17911
2 54258                          +0002TWWT +0003PK0V +0002AQ29     04

# Worst residual: 0.77 km
# MJD 59924.000000 (2022 Dec 11  0:00)
A10Re7q
1 54258U 22156B   22344.99919926 +00KEJYWU +00C6L74E +005JBE89H 17917
2 54258                          +0002QK17 +0003OULF +0002AC5N     06

# Worst residual: 0.77 km
# MJD 59925.000000 (2022 Dec 12  0:00)
A10Re7q
1 54258U 22156B   22345.99919926 +00L1UBF0 +00D2ERYU +00631D2DH 17914
2 54258                          +0002NKAX +0003OD38 +0002A0LJ     04

# Worst residual: 0.81 km
# MJD 59926.000000 (2022 Dec 13  0:00)
A10Re7q
1 54258U 22156B   22346.99919926 +00LOG6AM +00DY547I +006MOV9UH 17917
2 54258                          +0002KVMT +0003O3M4 +00029ROM     09

# Worst residual: 0.89 km
# MJD 59927.000000 (2022 Dec 14  0:00)
A10Re7q
1 54258U 22156B   22347.99919926 +00MAFYXB +00ETU5L1 +0076AKS3H 17913
2 54258                          +0002IG5W +0003O290 +00029LNN     08

# Worst residual: 0.96 km
# MJD 59928.000000 (2022 Dec 15  0:00)
A10Re7q
1 54258U 22156B   22348.99919926 +00MVVPEB +00FPJUHQ +007PV7G8H 17914
2 54258                          +0002G87C +0003O92G +00029IQ3     01

